{
  "type": "FeatureCollection",
  "features": [
    {
      "type": "Feature",
      "properties": {
        "norad_id": 43823,
        "name": "GEO-KOMPSAT-2A",
        "group": "weather",
        "lat": 0.010563224867320446,
        "lon": -78.85143279385073,
        "alt_km": 35788.20761036805,
        "timestamp": "2025-12-25T03:55:55.948954+00:00",
        "meta_object_name": "GEO-KOMPSAT-2A",
        "meta_object_id": "2018-100A",
        "meta_epoch": "2025-12-23T23:16:38.882208",
        "meta_mean_motion": 1.00269322,
        "meta_eccentricity": 3.088e-05,
        "meta_inclination": 0.0454,
        "meta_ra_of_asc_node": 176.4118,
        "meta_arg_of_pericenter": 270.2699,
        "meta_mean_anomaly": 123.4879,
        "meta_ephemeris_type": 0,
        "meta_classification_type": "U",
        "meta_norad_cat_id": 43823,
        "meta_element_set_no": 999,
        "meta_rev_at_epoch": 2587,
        "meta_bstar": 0,
        "meta_mean_motion_dot": -3.23e-06,
        "meta_mean_motion_ddot": 0,
        "tle_line1": "1 43823U 18100A   25357.96989447 -.00000323  00000+0  00000+0 0  9995",
        "tle_line2": "2 43823   0.0454 176.4118 0000308 270.2699 123.4879  1.00269322 25870"
      },
      "geometry": {
        "type": "Point",
        "coordinates": [
          -78.85143279385073,
          0.010563224867320446
        ]
      }
    },
    {
      "type": "Feature",
      "properties": {
        "norad_id": 44387,
        "name": "METEOR-M2 2",
        "group": "weather",
        "lat": -36.350441933525005,
        "lon": -14.334274525567638,
        "alt_km": 818.3580921832063,
        "timestamp": "2025-12-25T03:55:55.948967+00:00",
        "meta_object_name": "METEOR-M2 2",
        "meta_object_id": "2019-038A",
        "meta_epoch": "2025-12-24T21:21:39.698784",
        "meta_mean_motion": 14.24295386,
        "meta_eccentricity": 0.0001789,
        "meta_inclination": 98.8986,
        "meta_ra_of_asc_node": 338.7677,
        "meta_arg_of_pericenter": 125.5048,
        "meta_mean_anomaly": 234.6297,
        "meta_ephemeris_type": 0,
        "meta_classification_type": "U",
        "meta_norad_cat_id": 44387,
        "meta_element_set_no": 999,
        "meta_rev_at_epoch": 33648,
        "meta_bstar": -5.1894e-05,
        "meta_mean_motion_dot": -1.66e-06,
        "meta_mean_motion_ddot": 0,
        "tle_line1": "1 44387U 19038A   25358.89004281 -.00000166  00000+0 -51894-4 0  9997",
        "tle_line2": "2 44387  98.8986 338.7677 0001789 125.5048 234.6297 14.24295386336488"
      },
      "geometry": {
        "type": "Point",
        "coordinates": [
          -14.334274525567638,
          -36.350441933525005
        ]
      }
    },
    {
      "type": "Feature",
      "properties": {
        "norad_id": 47719,
        "name": "ARKTIKA-M 1",
        "group": "weather",
        "lat": 57.35677537611577,
        "lon": 134.44323025421676,
        "alt_km": 33954.30646628625,
        "timestamp": "2025-12-25T03:55:55.948980+00:00",
        "meta_object_name": "ARKTIKA-M 1",
        "meta_object_id": "2021-016A",
        "meta_epoch": "2025-12-23T01:01:51.743136",
        "meta_mean_motion": 2.00630806,
        "meta_eccentricity": 0.72093828,
        "meta_inclination": 63.1759,
        "meta_ra_of_asc_node": 82.5898,
        "meta_arg_of_pericenter": 269.1646,
        "meta_mean_anomaly": 15.5425,
        "meta_ephemeris_type": 0,
        "meta_classification_type": "U",
        "meta_norad_cat_id": 47719,
        "meta_element_set_no": 999,
        "meta_rev_at_epoch": 3525,
        "meta_bstar": 0,
        "meta_mean_motion_dot": -6.7e-07,
        "meta_mean_motion_ddot": 0,
        "tle_line1": "1 47719U 21016A   25357.04295999 -.00000067  00000+0  00000+0 0  9999",
        "tle_line2": "2 47719  63.1759  82.5898 7209382 269.1646  15.5425  2.00630806 35258"
      },
      "geometry": {
        "type": "Point",
        "coordinates": [
          134.44323025421676,
          57.35677537611577
        ]
      }
    },
    {
      "type": "Feature",
      "properties": {
        "norad_id": 49008,
        "name": "FENGYUN 3E",
        "group": "weather",
        "lat": 80.02805131576407,
        "lon": -61.59113168911617,
        "alt_km": 818.5113028506566,
        "timestamp": "2025-12-25T03:55:55.948997+00:00",
        "meta_object_name": "FENGYUN 3E",
        "meta_object_id": "2021-062A",
        "meta_epoch": "2025-12-24T20:46:02.798688",
        "meta_mean_motion": 14.19880225,
        "meta_eccentricity": 9.29e-05,
        "meta_inclination": 98.7475,
        "meta_ra_of_asc_node": 359.2422,
        "meta_arg_of_pericenter": 190.6837,
        "meta_mean_anomaly": 169.432,
        "meta_ephemeris_type": 0,
        "meta_classification_type": "U",
        "meta_norad_cat_id": 49008,
        "meta_element_set_no": 999,
        "meta_rev_at_epoch": 23184,
        "meta_bstar": -0.00010105,
        "meta_mean_motion_dot": -2.58e-06,
        "meta_mean_motion_ddot": 0,
        "tle_line1": "1 49008U 21062A   25358.86531017 -.00000258  00000+0 -10105-3 0  9992",
        "tle_line2": "2 49008  98.7475 359.2422 0000929 190.6837 169.4320 14.19880225231847"
      },
      "geometry": {
        "type": "Point",
        "coordinates": [
          -61.59113168911617,
          80.02805131576407
        ]
      }
    },
    {
      "type": "Feature",
      "properties": {
        "norad_id": 51850,
        "name": "GOES 18",
        "group": "weather",
        "lat": 0.0019984685020574414,
        "lon": 15.904933790436457,
        "alt_km": 35785.27835444838,
        "timestamp": "2025-12-25T03:55:55.949010+00:00",
        "meta_object_name": "GOES 18",
        "meta_object_id": "2022-021A",
        "meta_epoch": "2025-12-24T15:52:17.641056",
        "meta_mean_motion": 1.00271126,
        "meta_eccentricity": 4.02e-05,
        "meta_inclination": 0.0049,
        "meta_ra_of_asc_node": 240.0602,
        "meta_arg_of_pericenter": 79.7127,
        "meta_mean_anomaly": 234.7308,
        "meta_ephemeris_type": 0,
        "meta_classification_type": "U",
        "meta_norad_cat_id": 51850,
        "meta_element_set_no": 999,
        "meta_rev_at_epoch": 484,
        "meta_bstar": 0,
        "meta_mean_motion_dot": 1.18e-06,
        "meta_mean_motion_ddot": 0,
        "tle_line1": "1 51850U 22021A   25358.66131529  .00000118  00000+0  00000+0 0  9990",
        "tle_line2": "2 51850   0.0049 240.0602 0000402  79.7127 234.7308  1.00271126  4840"
      },
      "geometry": {
        "type": "Point",
        "coordinates": [
          15.904933790436457,
          0.0019984685020574414
        ]
      }
    },
    {
      "type": "Feature",
      "properties": {
        "norad_id": 54234,
        "name": "NOAA 21 (JPSS-2)",
        "group": "weather",
        "lat": 73.34148808847432,
        "lon": -95.65108713453871,
        "alt_km": 819.3635200350955,
        "timestamp": "2025-12-25T03:55:55.949021+00:00",
        "meta_object_name": "NOAA 21 (JPSS-2)",
        "meta_object_id": "2022-150A",
        "meta_epoch": "2025-12-24T19:07:06.284928",
        "meta_mean_motion": 14.19527337,
        "meta_eccentricity": 0.0001668,
        "meta_inclination": 98.7478,
        "meta_ra_of_asc_node": 294.9552,
        "meta_arg_of_pericenter": 13.1326,
        "meta_mean_anomaly": 346.9893,
        "meta_ephemeris_type": 0,
        "meta_classification_type": "U",
        "meta_norad_cat_id": 54234,
        "meta_element_set_no": 999,
        "meta_rev_at_epoch": 16180,
        "meta_bstar": 6.6957e-05,
        "meta_mean_motion_dot": 9.7e-07,
        "meta_mean_motion_ddot": 0,
        "tle_line1": "1 54234U 22150A   25358.79660052  .00000097  00000+0  66957-4 0  9998",
        "tle_line2": "2 54234  98.7478 294.9552 0001668  13.1326 346.9893 14.19527337161806"
      },
      "geometry": {
        "type": "Point",
        "coordinates": [
          -95.65108713453871,
          73.34148808847432
        ]
      }
    },
    {
      "type": "Feature",
      "properties": {
        "norad_id": 54743,
        "name": "METEOSAT-12 (MTG-I1)",
        "group": "weather",
        "lat": 0.5718320816858966,
        "lon": 152.56814473763302,
        "alt_km": 35789.01959843118,
        "timestamp": "2025-12-25T03:55:55.949082+00:00",
        "meta_object_name": "METEOSAT-12 (MTG-I1)",
        "meta_object_id": "2022-170C",
        "meta_epoch": "2025-12-24T14:48:38.736000",
        "meta_mean_motion": 1.0027086,
        "meta_eccentricity": 0.0001609,
        "meta_inclination": 0.6988,
        "meta_ra_of_asc_node": 25.5659,
        "meta_arg_of_pericenter": 240.955,
        "meta_mean_anomaly": 48.7094,
        "meta_ephemeris_type": 0,
        "meta_classification_type": "U",
        "meta_norad_cat_id": 54743,
        "meta_element_set_no": 999,
        "meta_rev_at_epoch": 1122,
        "meta_bstar": 0,
        "meta_mean_motion_dot": 1.3e-07,
        "meta_mean_motion_ddot": 0,
        "tle_line1": "1 54743U 22170C   25358.61711500  .00000013  00000+0  00000+0 0  9991",
        "tle_line2": "2 54743   0.6988  25.5659 0001609 240.9550  48.7094  1.00270860 11221"
      },
      "geometry": {
        "type": "Point",
        "coordinates": [
          152.56814473763302,
          0.5718320816858966
        ]
      }
    }
  ]
}